[
    {
        "CCSDS_OMM_VERS": "3.0",
        "COMMENT": "GENERATED VIA SPACE-TRACK.ORG API",
        "CREATION_DATE": "2025-04-14T03:05:54",
        "ORIGINATOR": "18 SPCS",
        "OBJECT_NAME": "NAVSTAR 65 (USA 213)",
        "OBJECT_ID": "2010-022A",
        "CENTER_NAME": "EARTH",
        "REF_FRAME": "TEME",
        "TIME_SYSTEM": "UTC",
        "MEAN_ELEMENT_THEORY": "SGP4",
        "EPOCH": "2025-04-13T04:14:38.843808",
        "MEAN_MOTION": "2.00566675",
        "ECCENTRICITY": "0.01212770",
        "INCLINATION": "54.3557",
        "RA_OF_ASC_NODE": "225.8917",
        "ARG_OF_PERICENTER": "63.9179",
        "MEAN_ANOMALY": "292.6893",
        "EPHEMERIS_TYPE": "0",
        "CLASSIFICATION_TYPE": "U",
        "NORAD_CAT_ID": "36585",
        "ELEMENT_SET_NO": "999",
        "REV_AT_EPOCH": "10896",
        "BSTAR": "0.00000000000000",
        "MEAN_MOTION_DOT": "-0.00000013",
        "MEAN_MOTION_DDOT": "0.0000000000000",
        "SEMIMAJOR_AXIS": "26560.077",
        "PERIOD": "717.966",
        "APOAPSIS": "20504.054",
        "PERIAPSIS": "19859.829",
        "OBJECT_TYPE": "PAYLOAD",
        "RCS_SIZE": "LARGE",
        "COUNTRY_CODE": "US",
        "LAUNCH_DATE": "2010-05-28",
        "SITE": "AFETR",
        "DECAY_DATE": null,
        "FILE": "4701263",
        "GP_ID": "285534910",
        "TLE_LINE0": "0 NAVSTAR 65 (USA 213)",
        "TLE_LINE1": "1 36585U 10022A   25103.17683847 -.00000013  00000-0  00000-0 0  9992",
        "TLE_LINE2": "2 36585  54.3557 225.8917 0121277  63.9179 292.6893  2.00566675108967"
    }
]